$$SOE
2461295.500000000, A.D. 2026-Sep-12 00:00:00.0000, -4.052223934580409E+08, -7.338249409123257E+07, 1.654801264258153E+07,
2461302.500000000, A.D. 2026-Sep-19 00:00:00.0000, -4.049204998801702E+08, -8.371925968485434E+07, 1.785016802829260E+07,
2461309.500000000, A.D. 2026-Sep-26 00:00:00.0000, -4.043413181408924E+08, -9.399866959442830E+07, 1.914010090157010E+07,
2461316.500000000, A.D. 2026-Oct-03 00:00:00.0000, -4.034886196566567E+08, -1.042144724118409E+08, 2.041708755281452E+07,
2461323.500000000, A.D. 2026-Oct-10 00:00:00.0000, -4.023662359399119E+08, -1.143606018590042E+08, 2.168042873347580E+07,
2461330.500000000, A.D. 2026-Oct-17 00:00:00.0000, -4.009780526121098E+08, -1.244311713220040E+08, 2.292944887022322E+07,
2461337.500000000, A.D. 2026-Oct-24 00:00:00.0000, -3.993280039015121E+08, -1.344204685187257E+08, 2.416349528475029E+07,
2461344.500000000, A.D. 2026-Oct-31 00:00:00.0000, -3.974200675008979E+08, -1.443229503828191E+08, 2.538193740643302E+07,
2461351.500000000, A.D. 2026-Nov-07 00:00:00.0000, -3.952582594210173E+08, -1.541332381039359E+08, 2.658416595430085E+07,
2461358.500000000, A.D. 2026-Nov-14 00:00:00.0000, -3.928466286145319E+08, -1.638461114487342E+08, 2.776959214370435E+07,
2461365.500000000, A.D. 2026-Nov-21 00:00:00.0000, -3.901892531583450E+08, -1.734565016911809E+08, 2.893764714059002E+07,
2461372.500000000, A.D. 2026-Nov-28 00:00:00.0000, -3.872902389705730E+08, -1.829594861701585E+08, 3.008778160995421E+07,
2461379.500000000, A.D. 2026-Dec-05 00:00:00.0000, -3.841537174238205E+08, -1.923502851391061E+08, 3.121946497387069E+07,
2461386.500000000, A.D. 2026-Dec-12 00:00:00.0000, -3.807838416709816E+08, -2.016242578018105E+08, 3.233218461917706E+07,
2461393.500000000, A.D. 2026-Dec-19 00:00:00.0000, -3.771847835505285E+08, -2.107768975315737E+08, 3.342544522894657E+07,
2461400.500000000, A.D. 2026-Dec-26 00:00:00.0000, -3.733607311944080E+08, -2.198038271461645E+08, 3.449876818003010E+07,
2461407.500000000, A.D. 2027-Jan-02 00:00:00.0000, -3.693158870462458E+08, -2.287007944340142E+08, 3.555169096593311E+07,
2461414.500000000, A.D. 2027-Jan-09 00:00:00.0000, -3.650544661587000E+08, -2.374636679149179E+08, 3.658376663620529E+07,
2461421.500000000, A.D. 2027-Jan-16 00:00:00.0000, -3.605806947216067E+08, -2.460884328286154E+08, 3.759456325002468E+07,
2461428.500000000, A.D. 2027-Jan-23 00:00:00.0000, -3.558988087628504E+08, -2.545711873923199E+08, 3.858366333659108E+07,
2461435.500000000, A.D. 2027-Jan-30 00:00:00.0000, -3.510130528232331E+08, -2.629081393757938E+08, 3.955066334118105E+07,
2461442.500000000, A.D. 2027-Feb-06 00:00:00.0000, -3.459276781704975E+08, -2.710956026537540E+08, 4.049517304556652E+07,
2461449.500000000, A.D. 2027-Feb-13 00:00:00.0000, -3.406469410027251E+08, -2.791299925142984E+08, 4.141681510433592E+07,
2461456.500000000, A.D. 2027-Feb-20 00:00:00.0000, -3.351751029939456E+08, -2.870078205119131E+08, 4.231522484851776E+07,
2461463.500000000, A.D. 2027-Feb-27 00:00:00.0000, -3.295164327749125E+08, -2.947256920773994E+08, 4.319004996491224E+07,
2461470.500000000, A.D. 2027-Mar-06 00:00:00.0000, -3.236752053210127E+08, -3.022803049618703E+08, 4.404094993073098E+07,
2461477.500000000, A.D. 2027-Mar-13 00:00:00.0000, -3.176557008381281E+08, -3.096684464650142E+08, 4.486759551722766E+07,
2461484.500000000, A.D. 2027-Mar-20 00:00:00.0000, -3.114622042673044E+08, -3.168869902822353E+08, 4.566966839721604E+07,
2461491.500000000, A.D. 2027-Mar-27 00:00:00.0000, -3.050990051992648E+08, -3.239328935198905E+08, 4.644686079280290E+07,
2461498.500000000, A.D. 2027-Apr-03 00:00:00.0000, -2.985703979903629E+08, -3.308031939262918E+08, 4.719887514074452E+07,
2461505.500000000, A.D. 2027-Apr-10 00:00:00.0000, -2.918806820139009E+08, -3.374950073144059E+08, 4.792542377170850E+07,
2461512.500000000, A.D. 2027-Apr-17 00:00:00.0000, -2.850341620197962E+08, -3.440055251886027E+08, 4.862622860017119E+07,
2461519.500000000, A.D. 2027-Apr-24 00:00:00.0000, -2.780351485181013E+08, -3.503320126352167E+08, 4.930102081236926E+07,
2461526.500000000, A.D. 2027-May-01 00:00:00.0000, -2.708879578813938E+08, -3.564718064466805E+08, 4.994954052674158E+07,
2461533.500000000, A.D. 2027-May-08 00:00:00.0000, -2.635969118534182E+08, -3.624223127283192E+08, 5.057153645938683E+07,
2461540.500000000, A.D. 2027-May-15 00:00:00.0000, -2.561663379554380E+08, -3.681810030315377E+08, 5.116676580913219E+07,
2461547.500000000, A.D. 2027-May-22 00:00:00.0000, -2.486005723483085E+08, -3.737454116027142E+08, 5.173499429311022E+07,
2461554.500000000, A.D. 2027-May-29 00:00:00.0000, -2.409039617893741E+08, -3.791131352156350E+08, 5.227599590467755E+07,
2461561.500000000, A.D. 2027-Jun-05 00:00:00.0000, -2.330808637958577E+08, -3.842818324558569E+08, 5.278955256853214E+07,
2461568.500000000, A.D. 2027-Jun-12 00:00:00.0000, -2.251356470190407E+08, -3.892492220245049E+08, 5.327545391254039E+07,
2461575.500000000, A.D. 2027-Jun-19 00:00:00.0000, -2.170726921569794E+08, -3.940130809956119E+08, 5.373349711025949E+07,
2461582.500000000, A.D. 2027-Jun-26 00:00:00.0000, -2.088963931232362E+08, -3.985712432877895E+08, 5.416348674721302E+07,
2461589.500000000, A.D. 2027-Jul-03 00:00:00.0000, -2.006111583367996E+08, -4.029215983420085E+08, 5.456523469963595E+07,
2461596.500000000, A.D. 2027-Jul-10 00:00:00.0000, -1.922214120943053E+08, -4.070620899972370E+08, 5.493856002335820E+07,
2461603.500000000, A.D. 2027-Jul-17 00:00:00.0000, -1.837315959866633E+08, -4.109907156031514E+08, 5.528328884673814E+07,
2461610.500000000, A.D. 2027-Jul-24 00:00:00.0000, -1.751461702022094E+08, -4.147055254327947E+08, 5.559925424852251E+07,
2461617.500000000, A.D. 2027-Jul-31 00:00:00.0000, -1.664696143034028E+08, -4.182046221596382E+08, 5.588629610240653E+07,
2461624.500000000, A.D. 2027-Aug-07 00:00:00.0000, -1.577064276761521E+08, -4.214861592471787E+08, 5.614426100096323E+07,
2461631.500000000, A.D. 2027-Aug-14 00:00:00.0000, -1.488611319508473E+08, -4.245483385038972E+08, 5.637300244918363E+07,
2461638.500000000, A.D. 2027-Aug-21 00:00:00.0000, -1.399382747742573E+08, -4.273894101680126E+08, 5.657238099577829E+07,
2461645.500000000, A.D. 2027-Aug-28 00:00:00.0000, -1.309424314992113E+08, -4.300076743208799E+08, 5.674226408605006E+07,
2461652.500000000, A.D. 2027-Sep-04 00:00:00.0000, -1.218782059721286E+08, -4.324014811289603E+08, 5.688252594947021E+07,
2461659.500000000, A.D. 2027-Sep-11 00:00:00.0000, -1.127502318126063E+08, -4.345692305771401E+08, 5.699304759597100E+07,
2461666.500000000, A.D. 2027-Sep-18 00:00:00.0000, -1.035631740504829E+08, -4.365093723448179E+08, 5.707371685551879E+07,
2461673.500000000, A.D. 2027-Sep-25 00:00:00.0000, -9.432173088984156E+07, -4.382204059037794E+08, 5.712442843347217E+07,
2461680.500000000, A.D. 2027-Oct-02 00:00:00.0000, -8.503063552298446E+07, -4.397008808122611E+08, 5.714508397701226E+07,
2461687.500000000, A.D. 2027-Oct-09 00:00:00.0000, -7.569465797015771E+07, -4.409493972124667E+08, 5.713559215038225E+07,
2461694.500000000, A.D. 2027-Oct-16 00:00:00.0000, -6.631860688069998E+07, -4.419646065895480E+08, 5.709586870906015E+07,
2461701.500000000, A.D. 2027-Oct-23 00:00:00.0000, -5.690733103509051E+07, -4.427452128004380E+08, 5.702583654894216E+07,
2461708.500000000, A.D. 2027-Oct-30 00:00:00.0000, -4.746572017244757E+07, -4.432899727639946E+08, 5.692542574615310E+07,
2461715.500000000, A.D. 2027-Nov-06 00:00:00.0000, -3.799870630531643E+07, -4.435976956851385E+08, 5.679457378609657E+07,
2461722.500000000, A.D. 2027-Nov-13 00:00:00.0000, -2.851126750380887E+07, -4.436672428898293E+08, 5.663322599358326E+07,
2461729.500000000, A.D. 2027-Nov-20 00:00:00.0000, -1.900843124222057E+07, -4.434975304598494E+08, 5.644133571913463E+07,
2461736.500000000, A.D. 2027-Nov-27 00:00:00.0000, -9.495275686129186E+06, -4.430875317096509E+08, 5.621886437632708E+07,
2461743.500000000, A.D. 2027-Dec-04 00:00:00.0000, 2.306905919771931E+04, -4.424362785990394E+08, 5.596578159190935E+07,
2461750.500000000, A.D. 2027-Dec-11 00:00:00.0000, 9.541419190360654E+06, -4.415428630525039E+08, 5.568206544173102E+07,
2461757.500000000, A.D. 2027-Dec-18 00:00:00.0000, 1.905453521418290E+07, -4.404064385301176E+08, 5.536770272056095E+07,
2461764.500000000, A.D. 2027-Dec-25 00:00:00.0000, 2.855711987735718E+07, -4.390262218572038E+08, 5.502268923234685E+07,
2461771.500000000, A.D. 2028-Jan-01 00:00:00.0000, 3.804381606243490E+07, -4.374014953030163E+08, 5.464703009878214E+07,
$$EOE